{
  "type": "FeatureCollection",
  "features": [
    {
      "type": "Feature",
      "properties": {
        "norad_id": 66488,
        "name": "STARLINK-35515",
        "group": "last-30-days",
        "lat": 13.667097795342961,
        "lon": -49.490985027720896,
        "alt_km": 413.5816677605553,
        "timestamp": "2025-12-09T05:43:19.508891+00:00",
        "meta_object_name": "STARLINK-35515",
        "meta_object_id": "2025-263D",
        "meta_epoch": "2025-12-08T20:00:01.999008",
        "meta_mean_motion": 15.505818,
        "meta_eccentricity": 0.0001515,
        "meta_inclination": 43,
        "meta_ra_of_asc_node": 148.0053,
        "meta_arg_of_pericenter": 289.1986,
        "meta_mean_anomaly": 126.6521,
        "meta_ephemeris_type": 0,
        "meta_classification_type": "U",
        "meta_norad_cat_id": 66488,
        "meta_element_set_no": 999,
        "meta_rev_at_epoch": 500,
        "meta_bstar": -0.0002675,
        "meta_mean_motion_dot": -0.00016004,
        "meta_mean_motion_ddot": 0,
        "tle_line1": "1 66488U 25263D   25342.83335647 -.00016004  00000+0 -26750-3 0  9990",
        "tle_line2": "2 66488  43.0000 148.0053 0001515 289.1986 126.6521 15.50581800  5008"
      },
      "geometry": {
        "type": "Point",
        "coordinates": [
          -49.490985027720896,
          13.667097795342961
        ]
      }
    },
    {
      "type": "Feature",
      "properties": {
        "norad_id": 66489,
        "name": "STARLINK-35696",
        "group": "last-30-days",
        "lat": 12.406784407884137,
        "lon": -48.024476445847,
        "alt_km": 413.7767073040568,
        "timestamp": "2025-12-09T05:43:19.508901+00:00",
        "meta_object_name": "STARLINK-35696",
        "meta_object_id": "2025-263E",
        "meta_epoch": "2025-12-08T20:00:01.999008",
        "meta_mean_motion": 15.5058069,
        "meta_eccentricity": 0.0001676,
        "meta_inclination": 43.0002,
        "meta_ra_of_asc_node": 148.0004,
        "meta_arg_of_pericenter": 283.334,
        "meta_mean_anomaly": 134.4408,
        "meta_ephemeris_type": 0,
        "meta_classification_type": "U",
        "meta_norad_cat_id": 66489,
        "meta_element_set_no": 999,
        "meta_rev_at_epoch": 500,
        "meta_bstar": -0.00061028,
        "meta_mean_motion_dot": -0.00035982,
        "meta_mean_motion_ddot": 0,
        "tle_line1": "1 66489U 25263E   25342.83335647 -.00035982  00000+0 -61028-3 0  9994",
        "tle_line2": "2 66489  43.0002 148.0004 0001676 283.3340 134.4408 15.50580690  5002"
      },
      "geometry": {
        "type": "Point",
        "coordinates": [
          -48.024476445847,
          12.406784407884137
        ]
      }
    },
    {
      "type": "Feature",
      "properties": {
        "norad_id": 66490,
        "name": "STARLINK-35693",
        "group": "last-30-days",
        "lat": 11.137615742159575,
        "lon": -46.57124990905092,
        "alt_km": 413.94967661919145,
        "timestamp": "2025-12-09T05:43:19.508914+00:00",
        "meta_object_name": "STARLINK-35693",
        "meta_object_id": "2025-263F",
        "meta_epoch": "2025-12-08T20:00:01.999008",
        "meta_mean_motion": 15.50590015,
        "meta_eccentricity": 0.0001609,
        "meta_inclination": 43.0004,
        "meta_ra_of_asc_node": 147.9954,
        "meta_arg_of_pericenter": 290.2149,
        "meta_mean_anomaly": 129.4437,
        "meta_ephemeris_type": 0,
        "meta_classification_type": "U",
        "meta_norad_cat_id": 66490,
        "meta_element_set_no": 999,
        "meta_rev_at_epoch": 500,
        "meta_bstar": -0.00031849,
        "meta_mean_motion_dot": -0.00018988,
        "meta_mean_motion_ddot": 0,
        "tle_line1": "1 66490U 25263F   25342.83335647 -.00018988  00000+0 -31849-3 0  9991",
        "tle_line2": "2 66490  43.0004 147.9954 0001609 290.2149 129.4437 15.50590015  5006"
      },
      "geometry": {
        "type": "Point",
        "coordinates": [
          -46.57124990905092,
          11.137615742159575
        ]
      }
    },
    {
      "type": "Feature",
      "properties": {
        "norad_id": 66491,
        "name": "STARLINK-35663",
        "group": "last-30-days",
        "lat": 8.557617233155021,
        "lon": -43.67697411422624,
        "alt_km": 414.2366398361901,
        "timestamp": "2025-12-09T05:43:19.508924+00:00",
        "meta_object_name": "STARLINK-35663",
        "meta_object_id": "2025-263G",
        "meta_epoch": "2025-12-08T20:00:01.999008",
        "meta_mean_motion": 15.50572951,
        "meta_eccentricity": 0.0001631,
        "meta_inclination": 43.0002,
        "meta_ra_of_asc_node": 147.9859,
        "meta_arg_of_pericenter": 287.6149,
        "meta_mean_anomaly": 135.9075,
        "meta_ephemeris_type": 0,
        "meta_classification_type": "U",
        "meta_norad_cat_id": 66491,
        "meta_element_set_no": 999,
        "meta_rev_at_epoch": 500,
        "meta_bstar": 5.5957e-05,
        "meta_mean_motion_dot": 2.942e-05,
        "meta_mean_motion_ddot": 0,
        "tle_line1": "1 66491U 25263G   25342.83335647  .00002942  00000+0  55957-4 0  9990",
        "tle_line2": "2 66491  43.0002 147.9859 0001631 287.6149 135.9075 15.50572951  5003"
      },
      "geometry": {
        "type": "Point",
        "coordinates": [
          -43.67697411422624,
          8.557617233155021
        ]
      }
    },
    {
      "type": "Feature",
      "properties": {
        "norad_id": 66492,
        "name": "STARLINK-35673",
        "group": "last-30-days",
        "lat": 7.324727563282323,
        "lon": -42.316714849476206,
        "alt_km": 415.3213423172083,
        "timestamp": "2025-12-09T05:43:19.508935+00:00",
        "meta_object_name": "STARLINK-35673",
        "meta_object_id": "2025-263H",
        "meta_epoch": "2025-12-08T20:00:01.999008",
        "meta_mean_motion": 15.50748251,
        "meta_eccentricity": 0.0001759,
        "meta_inclination": 43.0004,
        "meta_ra_of_asc_node": 147.9817,
        "meta_arg_of_pericenter": 296.3973,
        "meta_mean_anomaly": 129.0069,
        "meta_ephemeris_type": 0,
        "meta_classification_type": "U",
        "meta_norad_cat_id": 66492,
        "meta_element_set_no": 999,
        "meta_rev_at_epoch": 500,
        "meta_bstar": -0.0088608,
        "meta_mean_motion_dot": -0.00491791,
        "meta_mean_motion_ddot": 0,
        "tle_line1": "1 66492U 25263H   25342.83335647 -.00491791  00000+0 -88608-2 0  9994",
        "tle_line2": "2 66492  43.0004 147.9817 0001759 296.3973 129.0069 15.50748251  5008"
      },
      "geometry": {
        "type": "Point",
        "coordinates": [
          -42.316714849476206,
          7.324727563282323
        ]
      }
    },
    {
      "type": "Feature",
      "properties": {
        "norad_id": 66493,
        "name": "STARLINK-35597",
        "group": "last-30-days",
        "lat": 5.974011055416205,
        "lon": -40.842026566872754,
        "alt_km": 414.26966122517115,
        "timestamp": "2025-12-09T05:43:19.508946+00:00",
        "meta_object_name": "STARLINK-35597",
        "meta_object_id": "2025-263J",
        "meta_epoch": "2025-12-08T20:00:01.999008",
        "meta_mean_motion": 15.50567501,
        "meta_eccentricity": 0.0001434,
        "meta_inclination": 43.0003,
        "meta_ra_of_asc_node": 147.9756,
        "meta_arg_of_pericenter": 273.3821,
        "meta_mean_anomaly": 153.9727,
        "meta_ephemeris_type": 0,
        "meta_classification_type": "U",
        "meta_norad_cat_id": 66493,
        "meta_element_set_no": 999,
        "meta_rev_at_epoch": 500,
        "meta_bstar": 6.9389e-05,
        "meta_mean_motion_dot": 3.729e-05,
        "meta_mean_motion_ddot": 0,
        "tle_line1": "1 66493U 25263J   25342.83335647  .00003729  00000+0  69389-4 0  9990",
        "tle_line2": "2 66493  43.0003 147.9756 0001434 273.3821 153.9727 15.50567501  5001"
      },
      "geometry": {
        "type": "Point",
        "coordinates": [
          -40.842026566872754,
          5.974011055416205
        ]
      }
    },
    {
      "type": "Feature",
      "properties": {
        "norad_id": 66494,
        "name": "STARLINK-35689",
        "group": "last-30-days",
        "lat": 9.848972742126358,
        "lon": -45.11599126568725,
        "alt_km": 413.82648333186717,
        "timestamp": "2025-12-09T05:43:19.508958+00:00",
        "meta_object_name": "STARLINK-35689",
        "meta_object_id": "2025-263K",
        "meta_epoch": "2025-12-08T20:00:01.999008",
        "meta_mean_motion": 15.50565915,
        "meta_eccentricity": 0.0001449,
        "meta_inclination": 43.0003,
        "meta_ra_of_asc_node": 147.9911,
        "meta_arg_of_pericenter": 274.5841,
        "meta_mean_anomaly": 147.0244,
        "meta_ephemeris_type": 0,
        "meta_classification_type": "U",
        "meta_norad_cat_id": 66494,
        "meta_element_set_no": 999,
        "meta_rev_at_epoch": 500,
        "meta_bstar": 9.2421e-05,
        "meta_mean_motion_dot": 5.081e-05,
        "meta_mean_motion_ddot": 0,
        "tle_line1": "1 66494U 25263K   25342.83335647  .00005081  00000+0  92421-4 0  9997",
        "tle_line2": "2 66494  43.0003 147.9911 0001449 274.5841 147.0244 15.50565915  5001"
      },
      "geometry": {
        "type": "Point",
        "coordinates": [
          -45.11599126568725,
          9.848972742126358
        ]
      }
    }
  ]
}